IRIDIUM 57              
1 25273U 98019B   24214.60187632  .00000618  00000+0  20909-3 0  9999
2 25273  86.3942 279.0983 0002288  93.1274 267.0184 14.35305801378935
IRIDIUM 63              
1 25286U 98021B   24214.46878081  .00000907  00000+0  30669-3 0  9990
2 25286  86.3982 216.0570 0002189  93.6257 266.5190 14.35856406377956
IRIDIUM 69              
1 25319U 98026A   24214.47337292  .00000973  00000+0  30237-3 0  9991
2 25319  86.3959 230.3016 0003190  44.6397 315.5058 14.40109808377035
IRIDIUM 71              
1 25320U 98026B   24214.46371311  .00000906  00000+0  27924-3 0  9997
2 25320  86.3961 225.0583 0004334  76.7123 283.4560 14.40414140377550
IRIDIUM 73              
1 25344U 98032C   24214.41437066  .00001412  00000+0  35449-3 0  9999
2 25344  86.4463 182.4674 0002517  74.5137 285.6345 14.50670843384180
IRIDIUM 82              
1 25467U 98051A   24214.23806914  .00022415  00000+0  10734-2 0  9993
2 25467  86.3723 264.3690 0125027  55.7390 305.5614 15.12063119375290
